H1 CPF  1  DLR 2022 04 04 10  5942 technosat            
H2  1704205 6203    42829 2022 04 04 00 00 00 2022 04 11 00 00 00    60 1 1  0 0 0
H9
10 0 59674  64800.000000  0       4439985.226       1808800.055      -5058826.697
10 0 59674  64860.000000  0       4170377.895       1585849.134      -5354321.292
10 0 59674  64920.000000  0       3881257.392       1358671.671      -5627127.952
10 0 59674  64980.000000  0       3573814.320       1128391.143      -5876099.908
10 0 59674  65040.000000  0       3249325.038        896132.467      -6100192.007
10 0 59674  65100.000000  0       2909146.111        663016.529      -6298464.776
10 0 59674  65160.000000  0       2554708.508        430154.852      -6470088.085
10 0 59674  65220.000000  0       2187511.452        198644.361      -6614344.344
10 0 59674  65280.000000  0       1809116.062        -30437.703      -6730631.229
10 0 59674  65340.000000  0       1421138.741       -256038.739      -6818464.082
10 0 59674  65400.000000  0       1025244.141       -477135.591      -6877477.782
10 0 59674  65460.000000  0        623137.986       -692739.106      -6907427.987
10 0 59674  65520.000000  0        216559.818       -901898.469      -6908191.967
10 0 59674  65580.000000  0       -192724.416      -1103705.303      -6879769.010
10 0 59674  65640.000000  0       -602929.911      -1297297.537      -6822280.434
10 0 59674  65700.000000  0      -1012260.734      -1481863.042      -6735969.118
10 0 59674  65760.000000  0      -1418917.607      -1656643.008      -6621198.526
10 0 59674  65820.000000  0      -1821105.746      -1820935.068      -6478451.263
10 0 59674  65880.000000  0      -2217042.691      -1974096.063      -6308327.104
10 0 59674  65940.000000  0      -2604966.071      -2115544.532      -6111540.667
10 0 59674  66000.000000  0      -2983141.387      -2244762.936      -5888918.687
10 0 59674  66060.000000  0      -3349869.801      -2361299.597      -5641396.825
10 0 59674  66120.000000  0      -3703495.877      -2464770.301      -5370015.991
10 0 59674  66180.000000  0      -4042415.175      -2554859.570      -5075918.161
10 0 59674  66240.000000  0      -4365081.635      -2631321.581      -4760341.763
10 0 59674  66300.000000  0      -4670014.763      -2693980.747      -4424616.667
10 0 59674  66360.000000  0      -4955806.605      -2742731.956      -4070158.771
10 0 59674  66420.000000  0      -5221128.467      -2777540.480      -3698464.171
10 0 59674  66480.000000  0      -5464737.329      -2798441.499      -3311102.949
10 0 59674  66540.000000  0      -5685481.912      -2805539.288      -2909712.586
10 0 59674  66600.000000  0      -5882308.341      -2799006.040      -2495991.035
10 0 59674  66660.000000  0      -6054265.364      -2779080.365      -2071689.525
10 0 59674  66720.000000  0      -6200509.171      -2746065.461      -1638605.092
10 0 59674  66780.000000  0      -6320307.731      -2700326.927      -1198572.841
10 0 59674  66840.000000  0      -6413044.557      -2642290.265       -753458.001
10 0 59674  66900.000000  0      -6478221.956      -2572438.084       -305147.870
10 0 59674  66960.000000  0      -6515463.745      -2491307.024        144456.376
10 0 59674  67020.000000  0      -6524517.387      -2399484.389        593447.978
10 0 59674  67080.000000  0      -6505255.516      -2297604.553       1039922.928
10 0 59674  67140.000000  0      -6457676.828      -2186345.123       1481988.302
10 0 59674  67200.000000  0      -6381906.318      -2066422.913       1917770.515
10 0 59674  67260.000000  0      -6278194.894      -1938589.736       2345423.415
10 0 59674  67320.000000  0      -6146918.470      -1803628.047       2763136.194
10 0 59674  67380.000000  0      -5988576.511      -1662346.476       3169141.188
10 0 59674  67440.000000  0      -5803789.932      -1515575.262       3561721.532
10 0 59674  67500.000000  0      -5593298.321      -1364161.598       3939218.502
10 0 59674  67560.000000  0      -5357956.609      -1208964.934       4300038.456
10 0 59674  67620.000000  0      -5098731.311      -1050852.306       4642659.407
10 0 59674  67680.000000  0      -4816696.317       -890693.697       4965637.291
10 0 59674  67740.000000  0      -4513028.229       -729357.448       5267611.900
10 0 59674  67800.000000  0      -4189001.274       -567705.719       5547312.481
10 0 59674  67860.000000  0      -3845981.693       -406590.006       5803562.934
10 0 59674  67920.000000  0      -3485421.780       -246846.791       6035286.510
10 0 59674  67980.000000  0      -3108853.556        -89293.320       6241510.125
10 0 59674  68040.000000  0      -2717882.107         65276.442       6421368.170
10 0 59674  68100.000000  0      -2314178.678        216095.632       6574105.897
10 0 59674  68160.000000  0      -1899473.476        362428.161       6699082.385
10 0 59674  68220.000000  0      -1475548.256        503572.216       6795773.020
10 0 59674  68280.000000  0      -1044228.725        638863.551       6863771.496
10 0 59674  68340.000000  0       -607376.773        767678.528       6902791.412
10 0 59674  68400.000000  0       -166882.536        889436.937       6912667.374
10 0 59674  68460.000000  0        275343.636       1003604.563       6893355.664
10 0 59674  68520.000000  0        717379.345       1109695.520       6844934.486
10 0 59674  68580.000000  0       1157298.397       1207274.336       6767603.695
10 0 59674  68640.000000  0       1593179.081       1295957.733       6661684.066
10 0 59674  68700.000000  0       2023112.457       1375416.133       6527616.105
10 0 59674  68760.000000  0       2445210.625       1445374.888       6365958.432
10 0 59674  68820.000000  0       2857615.005       1505615.228       6177385.741
10 0 59674  68880.000000  0       3258504.606       1555974.919       5962686.208
10 0 59674  68940.000000  0       3646104.100       1596348.603       5722758.391
10 0 59674  69000.000000  0       4018691.709       1626687.857       5458607.733
10 0 59674  69060.000000  0       4374606.950       1647000.982       5171342.677
10 0 59674  69120.000000  0       4712258.216       1657352.502       4862170.360
10 0 59674  69180.000000  0       5030130.222       1657862.378       4532391.859
10 0 59674  69240.000000  0       5326791.198       1648704.870       4183396.889
10 0 59674  69300.000000  0       5600899.657       1630107.146       3816657.957
10 0 59674  69360.000000  0       5851210.647       1602347.636       3433724.201
10 0 59674  69420.000000  0       6076581.703       1565754.030       3036215.020
10 0 59674  69480.000000  0       6275978.458       1520701.022       2625813.299
10 0 59674  69540.000000  0       6448479.760       1467607.830       2204258.252
10 0 59674  69600.000000  0       6593282.268       1406935.469       1773337.905
10 0 59674  69660.000000  0       6709704.435       1339183.802       1334881.338
10 0 59674  69720.000000  0       6797189.923       1264888.342        890750.776
10 0 59674  69780.000000  0       6855310.507       1184616.907        442833.524
10 0 59674  69840.000000  0       6883768.396       1098966.080         -6966.362
10 0 59674  69900.000000  0       6882397.801       1008557.503       -456736.504
10 0 59674  69960.000000  0       6851165.827        914034.047       -904564.618
10 0 59674  70020.000000  0       6790172.732        816055.868      -1348546.895
10 0 59674  70080.000000  0       6699651.591        715296.362      -1786796.314
10 0 59674  70140.000000  0       6579967.326        612438.075      -2217450.943
10 0 59674  70200.000000  0       6431615.031        508168.626      -2638682.090
10 0 59674  70260.000000  0       6255217.695        403176.611      -3048702.243
10 0 59674  70320.000000  0       6051523.346        298147.521      -3445772.837
10 0 59674  70380.000000  0       5821401.542        193759.715      -3828211.768
10 0 59674  70440.000000  0       5565839.270         90680.462      -4194400.589
10 0 59674  70500.000000  0       5285936.303        -10437.915      -4542791.332
10 0 59674  70560.000000  0       4982900.088       -108961.769      -4871912.936
10 0 59674  70620.000000  0       4658040.231       -204279.704      -5180377.324
10 0 59674  70680.000000  0       4312762.533       -295806.002      -5466885.123
10 0 59674  70740.000000  0       3948562.629       -382983.882      -5730230.969
10 0 59674  70800.000000  0       3567019.258       -465288.596      -5969308.418
10 0 59674  70860.000000  0       3169787.117       -542230.305      -6183114.384
10 0 59674  70920.000000  0       2758589.450       -613356.697      -6370753.031
10 0 59674  70980.000000  0       2335210.449       -678255.375      -6531439.207
10 0 59674  71040.000000  0       1901487.467       -736556.043      -6664501.458
10 0 59674  71100.000000  0       1459303.034       -787932.462      -6769384.638
10 0 59674  71160.000000  0       1010576.655       -832104.147      -6845652.048
10 0 59674  71220.000000  0        557256.444       -868837.739      -6892987.068
10 0 59674  71280.000000  0        101310.721       -897948.126      -6911194.246
10 0 59674  71340.000000  0       -355280.384       -919299.338      -6900199.977
10 0 59674  71400.000000  0       -810533.415       -932805.163      -6860052.823
10 0 59674  71460.000000  0      -1262470.172       -938429.476      -6790923.282
10 0 59674  71520.000000  0      -1709126.206       -936186.283      -6693103.066
10 0 59674  71580.000000  0      -2148559.292       -926139.500      -6567003.904
10 0 59674  71640.000000  0      -2578857.736       -908402.470      -6413155.825
10 0 59674  71700.000000  0      -2998148.519       -883137.206      -6232205.130
10 0 59674  71760.000000  0      -3404605.434       -850553.377      -6024911.982
10 0 59674  71820.000000  0      -3796457.133       -810907.036      -5792147.471
10 0 59674  71880.000000  0      -4171994.964       -764499.061      -5534890.124
10 0 59674  71940.000000  0      -4529580.490       -711673.345      -5254222.004
99
